OBJECT_NAME,OBJECT_ID,EPOCH,MEAN_MOTION,ECCENTRICITY,INCLINATION,RA_OF_ASC_NODE,ARG_OF_PERICENTER,MEAN_ANOMALY,EPHEMERIS_TYPE,CLASSIFICATION_TYPE,NORAD_CAT_ID,ELEMENT_SET_NO,REV_AT_EPOCH,BSTAR,MEAN_MOTION_DOT,MEAN_MOTION_DDOT
IRIDIUM 33 DEB,1997-051ABL,2024-12-29T20:08:00.053664,14.43179428,.0008993,86.3805,201.9467,136.8036,282.8437,0,U,40998,999,1660,.13066E-2,.4411E-4,0
IRIDIUM 33 DEB,1997-051ABN,2024-12-31T04:24:57.905856,14.19817567,.0221671,86.2836,341.4604,311.7404,57.1120,0,U,46435,999,2979,.23809E-1,.65055E-3,0
IRIDIUM 33 DEB,1997-051ABR,2024-12-30T17:11:52.271808,14.38745818,.0042876,86.2685,154.8302,32.9375,28.4317,0,U,46734,999,58015,.32259E-2,.10034E-3,0
IRIDIUM 33 DEB,1997-051ABX,2024-12-31T03:00:10.154592,14.56714882,.0021764,86.3384,133.9727,62.3866,61.3307,0,U,46965,999,57215,.2495E-2,.1121E-3,0
IRIDIUM 33 DEB,1997-051ACG,2024-12-29T23:48:45.384480,14.35104960,.0104149,86.3037,255.7281,251.3510,107.6356,0,U,46974,999,52504,.79914E-2,.24325E-3,0
IRIDIUM 33 DEB,1997-051ACM,2024-12-31T07:09:19.437696,14.64297265,.0045654,86.3461,205.8635,1.9190,358.2188,0,U,46979,999,30317,.67821E-2,.36489E-3,0
