IRIDIUM 33 DEB          
1 40998U 97051ABL 24364.83888951  .00004411  00000+0  13066-2 0  9998
2 40998  86.3805 201.9467 0008993 136.8036 282.8437 14.43179428 16607
IRIDIUM 33 DEB          
1 46435U 97051ABN 24366.18400354  .00065055  00000+0  23809-1 0  9993
2 46435  86.2836 341.4604 0221671 311.7404  57.1120 14.19817567 29790
IRIDIUM 33 DEB          
1 46734U 97051ABR 24365.71657722  .00010034  00000+0  32259-2 0  9993
2 46734  86.2685 154.8302 0042876  32.9375  28.4317 14.38745818580153
IRIDIUM 33 DEB          
1 46965U 97051ABX 24366.12511753  .00011210  00000+0  24950-2 0  9994
2 46965  86.3384 133.9727 0021764  62.3866  61.3307 14.56714882572153
IRIDIUM 33 DEB          
1 46974U 97051ACG 24364.99219195  .00024325  00000+0  79914-2 0  9993
2 46974  86.3037 255.7281 0104149 251.3510 107.6356 14.35104960525042
IRIDIUM 33 DEB          
1 46979U 97051ACM 24366.29814164  .00036489  00000+0  67821-2 0  9998
2 46979  86.3461 205.8635 0045654   1.9190 358.2188 14.64297265303173
